[{"OBJECT_NAME":"STARLINK-3964","OBJECT_ID":"2022-051D","EPOCH":"2026-03-09T10:35:40.996608","MEAN_MOTION":15.08840402,"ECCENTRICITY":0.00010036,"INCLINATION":53.2167,"RA_OF_ASC_NODE":130.2356,"ARG_OF_PERICENTER":97.3943,"MEAN_ANOMALY":262.7163,"EPHEMERIS_TYPE":0,"CLASSIFICATION_TYPE":"U","NORAD_CAT_ID":52536,"ELEMENT_SET_NO":999,"REV_AT_EPOCH":21140,"BSTAR":-6.265822e-6,"MEAN_MOTION_DOT":-3.87e-6,"MEAN_MOTION_DDOT":0},{"OBJECT_NAME":"DELTA 1 DEB","OBJECT_ID":"1972-058EG","EPOCH":"2026-03-09T15:29:57.375744","MEAN_MOTION":14.93143945,"ECCENTRICITY":0.0071537,"INCLINATION":98.4418,"RA_OF_ASC_NODE":299.7647,"ARG_OF_PERICENTER":185.1751,"MEAN_ANOMALY":174.8735,"EPHEMERIS_TYPE":0,"CLASSIFICATION_TYPE":"U","NORAD_CAT_ID":8314,"ELEMENT_SET_NO":999,"REV_AT_EPOCH":83297,"BSTAR":0.00043799,"MEAN_MOTION_DOT":4.734e-5,"MEAN_MOTION_DDOT":0}]
